NORAD_CAT_ID,OBJECT_NAME,OBJECT_TYPE,EPOCH,MEAN_MOTION,ECCENTRICITY,INCLINATION,RA_OF_ASC_NODE,ARG_OF_PERICENTER,MEAN_ANOMALY,BSTAR,MEAN_MOTION_DOT,MEAN_MOTION_DDOT,TLE_LINE0,TLE_LINE1,TLE_LINE2,SEMIMAJOR_AXIS,PERIOD,APOGEE,PERIGEE,DECAYED
54182.0,STARLINK-5231,PAYLOAD,2023-04-21 17:52:15,15.07208236,0.0001092,53.2181,20.716,97.2179,262.8936,-5.5369e-05,-1.126e-05,0.0,0 STARLINK-5231,1 54182U 22141AB  23111.74462688 -.00001126  00000-0 -55369-4 0  9997,2 54182  53.2181  20.7160 0001092  97.2179 262.8936 15.07208236 27329,6922.873,95.541,545.494,543.982,0.0
54182.0,STARLINK-5231,PAYLOAD,2023-04-22 00:14:12,15.07214119,0.0001058,53.2178,19.53,91.8079,268.3034,4.3791e-06,-2.17e-06,0.0,0 STARLINK-5231,1 54182U 22141AB  23112.00986773 -.00000217  00000-0  43791-5 0  9999,2 54182  53.2178  19.5300 0001058  91.8079 268.3034 15.07214119 27594,6922.855,95.541,545.452,543.987,0.0
54182.0,STARLINK-5231,PAYLOAD,2023-04-22 03:25:10,15.07220801,0.0001207,53.2183,18.936,86.4776,273.6354,5.7177e-05,5.87e-06,0.0,0 STARLINK-5231,1 54182U 22141AB  23112.14248522  .00000587  00000-0  57177-4 0  9998,2 54182  53.2183  18.9360 0001207  86.4776 273.6354 15.07220801 27611,6922.834,95.54,545.535,543.863,0.0
54182.0,STARLINK-5231,PAYLOAD,2023-04-22 17:44:35,15.07201552,0.0001264,53.2193,16.2655,74.4379,285.6752,0.00012235,1.579e-05,0.0,0 STARLINK-5231,1 54182U 22141AB  23112.73929983  .00001579  00000-0  12235-3 0  9997,2 54182  53.2193  16.2655 0001264  74.4379 285.6752 15.07201552 27706,6922.893,95.541,545.633,543.883,0.0
54182.0,STARLINK-5231,PAYLOAD,2023-04-23 00:06:32,15.07197643,0.0001231,53.2194,15.0789,79.2994,280.8136,0.00021197,2.944e-05,0.0,0 STARLINK-5231,1 54182U 22141AB  23113.00454607  .00002944  00000-0  21197-3 0  9998,2 54182  53.2194  15.0789 0001231  79.2994 280.8136 15.07197643 27519,6922.905,95.542,545.622,543.918,0.0
54182.0,STARLINK-5231,PAYLOAD,2023-04-24 03:09:51,15.07216456,0.0001409,53.2185,10.0252,100.106,260.0091,-3.8686e-05,-8.72e-06,0.0,0 STARLINK-5231,1 54182U 22141AB  23114.13184442 -.00000872  00000-0 -38686-4 0  9992,2 54182  53.2185  10.0252 0001409 100.1060 260.0091 15.07216456 27686,6922.847,95.54,545.688,543.737,0.0
54182.0,STARLINK-5231,PAYLOAD,2023-04-24 23:51:10,15.07227408,9.84e-05,53.2187,6.1681,85.7254,274.3849,9.015e-05,1.09e-05,0.0,0 STARLINK-5231,1 54182U 22141AB  23114.99387665  .00001090  00000-0  90150-4 0  9993,2 54182  53.2187   6.1681 0000984  85.7254 274.3849 15.07227408 28049,6922.814,95.54,545.36,543.998,0.0
54182.0,STARLINK-5231,PAYLOAD,2023-04-26 06:04:24,15.07958632,0.0003297,53.2173,0.5244,176.3816,183.72,0.0060866,0.00095572,0.0,0 STARLINK-5231,1 54182U 22141AB  23116.25305618  .00095572  00000-0  60866-2 0  9999,2 54182  53.2173   0.5244 0003297 176.3816 183.7200 15.07958632 28008,6920.576,95.493,544.722,540.159,0.0
54182.0,STARLINK-5231,PAYLOAD,2023-04-27 00:00:00,15.08874691,3.26e-05,53.216,357.175,76.1811,20.7827,0.00038178,5.799e-05,0.0,0 STARLINK-5231,1 54182U 22141AB  23117.00001157  .00005799  00000-0  38178-3 0  9998,2 54182  53.2160 357.1750 0000326  76.1811  20.7827 15.08874691  1301,6917.774,95.435,539.865,539.414,0.0
54182.0,STARLINK-5231,PAYLOAD,2023-04-27 14:00:01,15.08872223,2.9e-05,53.2157,354.5541,113.0076,274.4038,0.0035561,0.00056814,0.0,0 STARLINK-5231,1 54182U 22141AB  23117.58335648  .00056814  00000-0  35561-2 0  9992,2 54182  53.2157 354.5541 0000290 113.0076 274.4038 15.08872223 28434,6917.782,95.436,539.848,539.446,0.0
54182.0,STARLINK-5231,PAYLOAD,2023-04-28 06:00:02,15.08834595,2.6e-05,53.2158,351.5623,128.6627,282.0809,-0.0005417,-8.897e-05,0.0,0 STARLINK-5231,1 54182U 22141AB  23118.25002315 -.00008897  00000-0 -54170-3 0  9997,2 54182  53.2158 351.5623 0000260 128.6627 282.0809 15.08834595 28536,6917.897,95.438,539.942,539.582,0.0
54182.0,STARLINK-5231,PAYLOAD,2023-04-28 14:00:01,15.08818074,4.89e-05,53.216,350.0645,149.6029,272.6662,0.003716,0.00059314,0.0,0 STARLINK-5231,1 54182U 22141AB  23118.58334491  .00059314  00000-0  37160-2 0  9993,2 54182  53.2160 350.0645 0000489 149.6029 272.6662 15.08818074  1301,6917.947,95.439,540.151,539.474,0.0
54182.0,STARLINK-5231,PAYLOAD,2023-04-28 22:00:00,15.08877816,3.9e-05,53.216,348.57,115.1621,318.6985,-0.005192,-0.00082059,0.0,0 STARLINK-5231,1 54182U 22141AB  23118.91667824 -.00082059  00000-0 -51920-2 0  9993,2 54182  53.2160 348.5700 0000390 115.1621 318.6985 15.08877816 28635,6917.765,95.435,539.9,539.36,0.0
54182.0,STARLINK-5231,PAYLOAD,2023-04-29 14:00:01,15.08829915,4.57e-05,53.2164,345.5753,128.3775,328.7279,0.0032612,0.00051983,0.0,0 STARLINK-5231,1 54182U 22141AB  23119.58335648  .00051983  00000-0  32612-2 0  9990,2 54182  53.2164 345.5753 0000457 128.3775 328.7279 15.08829915 28730,6917.911,95.438,540.092,539.46,0.0
54182.0,STARLINK-5231,PAYLOAD,2023-04-29 22:00:00,15.08871974,3.83e-05,53.2165,344.0809,83.8117,24.8258,-0.0048962,-0.00077438,0.0,0 STARLINK-5231,1 54182U 22141AB  23119.91667824 -.00077438  00000-0 -48962-2 0  9991,2 54182  53.2165 344.0809 0000383  83.8117  24.8258 15.08871974 28788,6917.783,95.436,539.913,539.383,0.0
54182.0,STARLINK-5231,PAYLOAD,2023-04-30 02:17:23,15.08870902,4.26e-05,53.217,343.2771,164.2854,195.8151,-0.00017922,-3.141e-05,0.0,0 STARLINK-5231,1 54182U 22141AB  23120.09541453 -.00003141  00000-0 -17922-3 0  9994,2 54182  53.2170 343.2771 0000426 164.2854 195.8151 15.08870902 28818,6917.786,95.436,539.946,539.356,0.0
54182.0,STARLINK-5231,PAYLOAD,2023-04-30 19:46:40,15.08828252,3.07e-05,53.2169,340.0063,113.0225,247.08,-2.0632e-05,-6.16e-06,0.0,0 STARLINK-5231,1 54182U 22141AB  23120.82407489 -.00000616  00000-0 -20632-4 0  9992,2 54182  53.2169 340.0063 0000307 113.0225 247.0800 15.08828252 28921,6917.916,95.438,539.994,539.569,0.0
54182.0,STARLINK-5231,PAYLOAD,2023-04-30 22:57:25,15.08834428,2.87e-05,53.2169,339.4115,110.9074,249.1949,1.4904e-05,-5e-07,0.0,0 STARLINK-5231,1 54182U 22141AB  23120.95655031 -.00000050  00000-0  14904-4 0  9990,2 54182  53.2169 339.4115 0000287 110.9074 249.1949 15.08834428 28947,6917.897,95.438,539.961,539.564,0.0
54182.0,STARLINK-5231,PAYLOAD,2023-05-01 13:15:54,15.08832645,2.35e-05,53.2167,336.7355,104.2374,255.8644,4.2517e-06,-2.2e-06,0.0,0 STARLINK-5231,1 54182U 22141AB  23121.55271279 -.00000220  00000-0  42517-5 0  9996,2 54182  53.2167 336.7355 0000235 104.2374 255.8644 15.08832645 28803,6917.903,95.438,539.93,539.605,0.0
54182.0,STARLINK-5231,PAYLOAD,2023-05-01 19:37:26,15.08837519,2.6e-05,53.2169,335.5464,76.1021,284.0,2.0886e-05,4.5e-07,0.0,0 STARLINK-5231,1 54182U 22141AB  23121.81767007  .00000045  00000-0  20886-4 0  9992,2 54182  53.2169 335.5464 0000260  76.1021 284.0000 15.08837519 28846,6917.888,95.438,539.933,539.573,0.0
54182.0,STARLINK-5231,PAYLOAD,2023-05-02 00:23:35,15.08843504,3.07e-05,53.2168,334.6535,102.8935,257.2092,4.6815e-05,4.58e-06,0.0,0 STARLINK-5231,1 54182U 22141AB  23122.01638491  .00000458  00000-0  46815-4 0  9997,2 54182  53.2168 334.6535 0000307 102.8935 257.2092 15.08843504 29101,6917.87,95.437,539.947,539.522,0.0
54182.0,STARLINK-5231,PAYLOAD,2023-05-02 19:28:13,15.08837337,3.53e-05,53.2168,331.0848,71.6664,288.4366,3.8516e-05,3.26e-06,0.0,0 STARLINK-5231,1 54182U 22141AB  23122.81127040  .00000326  00000-0  38516-4 0  9991,2 54182  53.2168 331.0848 0000353  71.6664 288.4366 15.08837337 29222,6917.889,95.438,539.998,539.509,0.0
54182.0,STARLINK-5231,PAYLOAD,2023-05-03 06:35:55,15.08836463,3.54e-05,53.2168,329.0031,74.5242,285.579,2.6952e-05,1.41e-06,0.0,0 STARLINK-5231,1 54182U 22141AB  23123.27495202  .00000141  00000-0  26952-4 0  9996,2 54182  53.2168 329.0031 0000354  74.5242 285.5790 15.08836463 29068,6917.891,95.438,540.001,539.511,0.0
54182.0,STARLINK-5231,PAYLOAD,2023-05-03 20:54:24,15.08837587,4.02e-05,53.2169,326.3265,70.6137,289.4899,-2.9792e-05,-7.62e-06,0.0,0 STARLINK-5231,1 54182U 22141AB  23123.87111531 -.00000762  00000-0 -29792-4 0  9998,2 54182  53.2169 326.3265 0000402  70.6137 289.4899 15.08837587 29153,6917.888,95.438,540.031,539.475,0.0
54182.0,STARLINK-5231,PAYLOAD,2023-05-03 22:29:47,15.08840366,4.31e-05,53.2167,326.0292,84.9846,275.1195,-8.7279e-07,-3.01e-06,0.0,0 STARLINK-5231,1 54182U 22141AB  23123.93735245 -.00000301  00000-0 -87279-6 0  9994,2 54182  53.2167 326.0292 0000431  84.9846 275.1195 15.08840366 29391,6917.879,95.438,540.042,539.446,0.0
54182.0,STARLINK-5231,PAYLOAD,2023-05-04 22:20:33,15.08847664,3.81e-05,53.2156,321.5703,97.6038,262.4998,4.4097e-05,4.15e-06,0.0,0 STARLINK-5231,1 54182U 22141AB  23124.93094608  .00000415  00000-0  44097-4 0  9999,2 54182  53.2156 321.5703 0000381  97.6038 262.4998 15.08847664 29314,6917.857,95.437,539.986,539.458,0.0
54182.0,STARLINK-5231,PAYLOAD,2023-05-05 12:39:02,15.08832278,3.13e-05,53.2155,318.8944,96.4221,263.6806,2.7962e-05,1.58e-06,0.0,0 STARLINK-5231,1 54182U 22141AB  23125.52711625  .00000158  00000-0  27962-4 0  9996,2 54182  53.2155 318.8944 0000313  96.4221 263.6806 15.08832278 29636,6917.904,95.438,539.986,539.552,0.0
54182.0,STARLINK-5231,PAYLOAD,2023-05-05 20:35:58,15.0883486,3.32e-05,53.216,317.4067,79.1739,280.929,3.7886e-05,3.15e-06,0.0,0 STARLINK-5231,1 54182U 22141AB  23125.85831585  .00000315  00000-0  37886-4 0  9991,2 54182  53.2160 317.4067 0000332  79.1739 280.9290 15.08834860 29454,6917.896,95.438,539.991,539.531,0.0
54182.0,STARLINK-5231,PAYLOAD,2023-05-06 12:29:50,15.08829702,4.44e-05,53.2157,314.4338,49.4086,310.6945,-9.926e-05,-1.866e-05,0.0,0 STARLINK-5231,1 54182U 22141AB  23126.52072832 -.00001866  00000-0 -99260-4 0  9996,2 54182  53.2157 314.4338 0000444  49.4086 310.6945 15.08829702 29555,6917.912,95.438,540.084,539.47,0.0
54182.0,STARLINK-5231,PAYLOAD,2023-05-06 22:02:09,15.08839493,4.07e-05,53.2155,312.6479,93.1021,267.0018,-2.5122e-05,-6.87e-06,0.0,0 STARLINK-5231,1 54182U 22141AB  23126.91816035 -.00000687  00000-0 -25122-4 0  9996,2 54182  53.2155 312.6479 0000407  93.1021 267.0018 15.08839493 29849,6917.882,95.438,540.028,539.465,0.0
